GSAT0101 (GALILEO-PFM)  
1 37846U 11060A   26008.88377779 -.00000096  00000+0  00000+0 0  9992
2 37846  57.0460 346.0838 0003531 330.2786  29.6919  1.70475702 88404
GSAT0102 (GALILEO-FM2)  
1 37847U 11060B   26011.43976109 -.00000094  00000+0  00000+0 0  9998
2 37847  57.0454 346.0150 0005373 320.7172 213.4052  1.70475990 88459
GSAT0103 (GALILEO-FM3)  
1 38857U 12055A   26010.68381679 -.00000031  00000+0  00000+0 0  9994
2 38857  55.7079 105.8711 0003558 275.4927  84.4742  1.70473290 82323
GSAT0201 (GALILEO 5)    
1 40128U 14050A   26011.03309402 -.00000074  00000+0  00000+0 0  9996
2 40128  49.0430 279.8677 1650922 173.3737 189.1617  1.85519828 75405
GSAT0202 (GALILEO 6)    
1 40129U 14050B   26011.82821608 -.00000066  00000+0  00000+0 0  9992
2 40129  49.0582 278.9192 1651709 174.1410 188.1109  1.85520514 77587
GSAT0203 (GALILEO 7)    
1 40544U 15017A   26011.00817068 -.00000095  00000+0  00000+0 0  9994
2 40544  56.8388 345.8822 0006235 281.4317  78.4908  1.70475874 66529
GSAT0204 (GALILEO 8)    
1 40545U 15017B   26011.26370060 -.00000094  00000+0  00000+0 0  9998
2 40545  56.8452 345.8930 0005810 272.8092  87.1170  1.70475601 29574
GSAT0205 (GALILEO 9)    
1 40889U 15045A   26003.99326098  .00000062  00000+0  00000+0 0  9997
2 40889  54.9968 226.1424 0006353  44.5343 315.6036  1.70473089 64219
GSAT0206 (GALILEO 10)   
1 40890U 15045B   26011.25287996  .00000069  00000+0  00000+0 0  9997
2 40890  54.9937 225.9366 0004338  46.0182 314.0807  1.70473418 64369
GSAT0209 (GALILEO 12)   
1 41174U 15079A   26010.83433600 -.00000031  00000+0  00000+0 0  9998
2 41174  55.7286 105.5815 0003021 333.0509  26.9411  1.70474673 62095
GSAT0208 (GALILEO 11)   
1 41175U 15079B   26009.29477361 -.00000026  00000+0  00000+0 0  9993
2 41175  55.7265 105.6210 0003089 322.3945  37.5936  1.70474266 62483
GSAT0211 (GALILEO 14)   
1 41549U 16030A   26011.76523198  .00000073  00000+0  00000+0 0  9992
2 41549  55.1435 225.9958 0004175  23.7732 336.3111  1.70473502 60002
GSAT0210 (GALILEO 13)   
1 41550U 16030B   26012.02257387  .00000075  00000+0  00000+0 0  9990
2 41550  55.1429 225.9867 0000621 189.2763 170.7885  1.70473812 60002
GSAT0207 (GALILEO 15)   
1 41859U 16069A   26012.30079332 -.00000034  00000+0  00000+0 0  9993
2 41859  55.3990 105.4032 0003473 308.3242  51.6502  1.70474564 56743
GSAT0212 (GALILEO 16)   
1 41860U 16069B   26011.56783536 -.00000034  00000+0  00000+0 0  9990
2 41860  55.3963 105.4188 0002257 356.5788   3.4262  1.70474774 56983
GSAT0213 (GALILEO 17)   
1 41861U 16069C   26011.34877115 -.00000033  00000+0  00000+0 0  9993
2 41861  55.3985 105.4326 0003430 284.3517  75.6171  1.70475051 56848
GSAT0214 (GALILEO 18)   
1 41862U 16069D   26012.08137372 -.00000034  00000+0  00000+0 0  9991
2 41862  55.3975 105.4052 0002515 287.9467  72.0317  1.70474943 56987
GSAT0215 (GALILEO 19)   
1 43055U 17079A   26011.98500468  .00000075  00000+0  00000+0 0  9991
2 43055  55.1216 225.8036 0001192  15.4137 344.6555  1.70474267 50329
GSAT0216 (GALILEO 20)   
1 43056U 17079B   26011.10309435  .00000068  00000+0  00000+0 0  9999
2 43056  55.1220 225.8279 0002114 334.4931  25.5591  1.70474379 50324
GSAT0217 (GALILEO 21)   
1 43057U 17079C   26008.97758564  .00000053  00000+0  00000+0 0  9996
2 43057  55.1214 225.8840 0003769  41.7362 318.3523  1.70474011 50270
GSAT0218 (GALILEO 22)   
1 43058U 17079D   26010.95731636  .00000067  00000+0  00000+0 0  9994
2 43058  55.1197 225.8277 0001766 340.5337  19.5217  1.70474206 50335
GSAT0221 (GALILEO 25)   
1 43564U 18060A   26010.86000638 -.00000094  00000+0  00000+0 0  9999
2 43564  57.2203 346.0310 0006625 291.7794  68.1426  1.70475698 46484
GSAT0222 (GALILEO 26)   
1 43565U 18060B   26011.66598115 -.00000093  00000+0  00000+0 0  9990
2 43565  57.2238 346.0124 0005717 273.3744  86.5529  1.70475444 46542
GSAT0219 (GALILEO 23)   
1 43566U 18060C   26011.30050309 -.00000094  00000+0  00000+0 0  9991
2 43566  57.2220 346.0240 0005839 297.7944  62.1390  1.70475656 46518
GSAT0220 (GALILEO 24)   
1 43567U 18060D   26011.52144125 -.00000093  00000+0  00000+0 0  9995
2 43567  57.2228 346.0177 0006018 295.0667  64.8635  1.70475775 46501
GSAT0223 (GALILEO 27)   
1 49809U 21116A   26011.65962241 -.00000093  00000+0  00000+0 0  9997
2 49809  57.2120 345.9042 0003941 264.3674 271.1328  1.70475860 25510
GSAT0224 (GALILEO 28)   
1 49810U 21116B   26011.47134925 -.00000093  00000+0  00000+0 0  9999
2 49810  57.2128 345.9079 0003415 269.8889 262.6624  1.70475928 25535
GSAT0225 (GALILEO 29)   
1 59598U 24079A   26009.37716009 -.00000027  00000+0  00000+0 0  9996
2 59598  55.0174 105.5215 0002019 206.9150 113.0070  1.70474992 10606
GSAT0227 (GALILEO 30)   
1 59600U 24079C   26009.03931073 -.00000025  00000+0  00000+0 0  9991
2 59600  55.0119 105.5301 0002151 118.5035 241.5276  1.70474937 10651
GSAT0232 (GALILEO 32)   
1 61182U 24167A   26010.80494384  .00000067  00000+0  00000+0 0  9998
2 61182  55.2321 225.6317 0001771 188.3607   9.6826  1.70473658  8193
GSAT0226 (GALILEO 31)   
1 61183U 24167B   26012.63975392  .00000080  00000+0  00000+0 0  9990
2 61183  55.2305 225.5868 0001497 104.9058 251.8790  1.70474021  8191
GALILEO A               
1 67160U 25302A   25352.14605887 -.00000007  00000+0  00000+0 0  9994
2 67160  54.2406 107.2544 0008423 237.6458 122.2317  1.72906186    28
GALILEO B               
1 67161U 25302B   26011.42644868 -.00000033  00000+0  00000+0 0  9990
2 67161  54.2421 106.5099 0005083 260.1895  99.7577  1.72972425   450
